{
  "type": "FeatureCollection",
  "features": [
    {
      "type": "Feature",
      "properties": {
        "norad_id": 34765,
        "name": "IRIDIUM 33 DEB",
        "group": "iridium-33-debris",
        "lat": -60.39059376264613,
        "lon": 26.349533046296976,
        "alt_km": 763.6865719740626,
        "timestamp": "2025-12-12T14:39:18.318484+00:00",
        "meta_object_name": "IRIDIUM 33 DEB",
        "meta_object_id": "1997-051LJ",
        "meta_epoch": "2025-12-11T14:38:05.129376",
        "meta_mean_motion": 14.40460694,
        "meta_eccentricity": 0.00153204,
        "meta_inclination": 86.3396,
        "meta_ra_of_asc_node": 33.2465,
        "meta_arg_of_pericenter": 215.3687,
        "meta_mean_anomaly": 297.1612,
        "meta_ephemeris_type": 0,
        "meta_classification_type": "U",
        "meta_norad_cat_id": 34765,
        "meta_element_set_no": 999,
        "meta_rev_at_epoch": 87597,
        "meta_bstar": 0.00062745119,
        "meta_mean_motion_dot": 2.016e-05,
        "meta_mean_motion_ddot": 0,
        "tle_line1": "1 34765U 97051LJ  25345.60978159  .00002016  00000+0  62745-3 0  9996",
        "tle_line2": "2 34765  86.3396  33.2465 0015320 215.3687 297.1612 14.40460694875970"
      },
      "geometry": {
        "type": "Point",
        "coordinates": [
          26.349533046296976,
          -60.39059376264613
        ]
      }
    },
    {
      "type": "Feature",
      "properties": {
        "norad_id": 34833,
        "name": "IRIDIUM 33 DEB",
        "group": "iridium-33-debris",
        "lat": 38.8813653434652,
        "lon": 53.964992007631444,
        "alt_km": 707.2464313104038,
        "timestamp": "2025-12-12T14:39:18.318493+00:00",
        "meta_object_name": "IRIDIUM 33 DEB",
        "meta_object_id": "1997-051MH",
        "meta_epoch": "2025-12-12T04:48:08.627040",
        "meta_mean_motion": 14.52373802,
        "meta_eccentricity": 0.00218096,
        "meta_inclination": 86.3926,
        "meta_ra_of_asc_node": 51.226,
        "meta_arg_of_pericenter": 100.2629,
        "meta_mean_anomaly": 313.9215,
        "meta_ephemeris_type": 0,
        "meta_classification_type": "U",
        "meta_norad_cat_id": 34833,
        "meta_element_set_no": 999,
        "meta_rev_at_epoch": 87707,
        "meta_bstar": 0.0012457755,
        "meta_mean_motion_dot": 5.107e-05,
        "meta_mean_motion_ddot": 0,
        "tle_line1": "1 34833U 97051MH  25346.20009985  .00005107  00000+0  12458-2 0  9990",
        "tle_line2": "2 34833  86.3926  51.2260 0021809 100.2629 313.9215 14.52373802877071"
      },
      "geometry": {
        "type": "Point",
        "coordinates": [
          53.964992007631444,
          38.8813653434652
        ]
      }
    },
    {
      "type": "Feature",
      "properties": {
        "norad_id": 34870,
        "name": "IRIDIUM 33 DEB",
        "group": "iridium-33-debris",
        "lat": 0.04855282360357733,
        "lon": -45.85372776607446,
        "alt_km": 655.0159314643515,
        "timestamp": "2025-12-12T14:39:18.318502+00:00",
        "meta_object_name": "IRIDIUM 33 DEB",
        "meta_object_id": "1997-051MQ",
        "meta_epoch": "2025-12-12T05:10:32.154816",
        "meta_mean_motion": 14.76416829,
        "meta_eccentricity": 0.00161138,
        "meta_inclination": 86.3104,
        "meta_ra_of_asc_node": 314.324,
        "meta_arg_of_pericenter": 184.3674,
        "meta_mean_anomaly": 237.8107,
        "meta_ephemeris_type": 0,
        "meta_classification_type": "U",
        "meta_norad_cat_id": 34870,
        "meta_element_set_no": 999,
        "meta_rev_at_epoch": 88903,
        "meta_bstar": 0.0023634796,
        "meta_mean_motion_dot": 0.00016508,
        "meta_mean_motion_ddot": 0,
        "tle_line1": "1 34870U 97051MQ  25346.21564994  .00016508  00000+0  23635-2 0  9994",
        "tle_line2": "2 34870  86.3104 314.3240 0016113 184.3674 237.8107 14.76416829889032"
      },
      "geometry": {
        "type": "Point",
        "coordinates": [
          -45.85372776607446,
          0.04855282360357733
        ]
      }
    },
    {
      "type": "Feature",
      "properties": {
        "norad_id": 34896,
        "name": "IRIDIUM 33 DEB",
        "group": "iridium-33-debris",
        "lat": -26.02385773467703,
        "lon": 148.53971940103924,
        "alt_km": 661.9075201090764,
        "timestamp": "2025-12-12T14:39:18.318511+00:00",
        "meta_object_name": "IRIDIUM 33 DEB",
        "meta_object_id": "1997-051MY",
        "meta_epoch": "2025-12-11T06:54:08.257248",
        "meta_mean_motion": 14.66256347,
        "meta_eccentricity": 0.00241983,
        "meta_inclination": 86.3294,
        "meta_ra_of_asc_node": 327.3367,
        "meta_arg_of_pericenter": 219.9786,
        "meta_mean_anomaly": 206.8534,
        "meta_ephemeris_type": 0,
        "meta_classification_type": "U",
        "meta_norad_cat_id": 34896,
        "meta_element_set_no": 999,
        "meta_rev_at_epoch": 87598,
        "meta_bstar": 0.0017967326,
        "meta_mean_motion_dot": 9.969e-05,
        "meta_mean_motion_ddot": 0,
        "tle_line1": "1 34896U 97051MY  25345.28759557  .00009969  00000+0  17967-2 0  9993",
        "tle_line2": "2 34896  86.3294 327.3367 0024198 219.9786 206.8534 14.66256347875980"
      },
      "geometry": {
        "type": "Point",
        "coordinates": [
          148.53971940103924,
          -26.02385773467703
        ]
      }
    },
    {
      "type": "Feature",
      "properties": {
        "norad_id": 34926,
        "name": "IRIDIUM 33 DEB",
        "group": "iridium-33-debris",
        "lat": -61.70772751280167,
        "lon": 1.1136776772916537,
        "alt_km": 665.281545721492,
        "timestamp": "2025-12-12T14:39:18.318520+00:00",
        "meta_object_name": "IRIDIUM 33 DEB",
        "meta_object_id": "1997-051NF",
        "meta_epoch": "2025-12-11T19:22:10.619040",
        "meta_mean_motion": 14.54346009,
        "meta_eccentricity": 0.00754631,
        "meta_inclination": 86.1327,
        "meta_ra_of_asc_node": 8.7055,
        "meta_arg_of_pericenter": 295.9766,
        "meta_mean_anomaly": 117.5242,
        "meta_ephemeris_type": 0,
        "meta_classification_type": "U",
        "meta_norad_cat_id": 34926,
        "meta_element_set_no": 999,
        "meta_rev_at_epoch": 86443,
        "meta_bstar": 0.0073698942,
        "meta_mean_motion_dot": 0.00032638,
        "meta_mean_motion_ddot": 0,
        "tle_line1": "1 34926U 97051NF  25345.80706735  .00032638  00000+0  73699-2 0  9998",
        "tle_line2": "2 34926  86.1327   8.7055 0075463 295.9766 117.5242 14.54346009864430"
      },
      "geometry": {
        "type": "Point",
        "coordinates": [
          1.1136776772916537,
          -61.70772751280167
        ]
      }
    },
    {
      "type": "Feature",
      "properties": {
        "norad_id": 34985,
        "name": "IRIDIUM 33 DEB",
        "group": "iridium-33-debris",
        "lat": 68.38149745008441,
        "lon": 66.15296513799169,
        "alt_km": 758.3159674845183,
        "timestamp": "2025-12-12T14:39:18.318536+00:00",
        "meta_object_name": "IRIDIUM 33 DEB",
        "meta_object_id": "1997-051NR",
        "meta_epoch": "2025-12-12T04:28:48.220608",
        "meta_mean_motion": 14.42006699,
        "meta_eccentricity": 0.00207093,
        "meta_inclination": 86.3696,
        "meta_ra_of_asc_node": 57.1151,
        "meta_arg_of_pericenter": 221.9104,
        "meta_mean_anomaly": 167.4455,
        "meta_ephemeris_type": 0,
        "meta_classification_type": "U",
        "meta_norad_cat_id": 34985,
        "meta_element_set_no": 999,
        "meta_rev_at_epoch": 87167,
        "meta_bstar": 0.001080303,
        "meta_mean_motion_dot": 3.571e-05,
        "meta_mean_motion_ddot": 0,
        "tle_line1": "1 34985U 97051NR  25346.18666922  .00003571  00000+0  10803-2 0  9990",
        "tle_line2": "2 34985  86.3696  57.1151 0020709 221.9104 167.4455 14.42006699871678"
      },
      "geometry": {
        "type": "Point",
        "coordinates": [
          66.15296513799169,
          68.38149745008441
        ]
      }
    },
    {
      "type": "Feature",
      "properties": {
        "norad_id": 35051,
        "name": "IRIDIUM 33 DEB",
        "group": "iridium-33-debris",
        "lat": -1.2587114857603827,
        "lon": 8.83738781435335,
        "alt_km": 736.976501135151,
        "timestamp": "2025-12-12T14:39:18.318545+00:00",
        "meta_object_name": "IRIDIUM 33 DEB",
        "meta_object_id": "1997-051NX",
        "meta_epoch": "2025-12-11T08:47:57.045408",
        "meta_mean_motion": 14.47588957,
        "meta_eccentricity": 0.00106566,
        "meta_inclination": 86.3243,
        "meta_ra_of_asc_node": 9.4603,
        "meta_arg_of_pericenter": 94.8899,
        "meta_mean_anomaly": 265.3522,
        "meta_ephemeris_type": 0,
        "meta_classification_type": "U",
        "meta_norad_cat_id": 35051,
        "meta_element_set_no": 999,
        "meta_rev_at_epoch": 86976,
        "meta_bstar": 0.001042299,
        "meta_mean_motion_dot": 3.858e-05,
        "meta_mean_motion_ddot": 0,
        "tle_line1": "1 35051U 97051NX  25345.36663247  .00003858  00000+0  10423-2 0  9997",
        "tle_line2": "2 35051  86.3243   9.4603 0010656  94.8899 265.3522 14.47588957869768"
      },
      "geometry": {
        "type": "Point",
        "coordinates": [
          8.83738781435335,
          -1.2587114857603827
        ]
      }
    }
  ]
}